ONEWEB-0087             
1 45451U 20020AD  26153.15339621  .00000256  00000+0  68594-3 0  9997
2 45451  87.8916  24.0329 0001909  73.5230 286.6107 13.11417740300618
ONEWEB-0082             
1 45452U 20020AE  26153.15001684  .00007240  00000+0  20389-1 0  9991
2 45452  87.8906  24.0530 0002823  75.8869 284.2572 13.11374156300704
ONEWEB-0050             
1 45453U 20020AF  26153.16941041  .00003040  00000+0  31081-3 0  9990
2 45453  88.9304 235.2486 0005240  58.7586 301.4156 14.90310989338148
ONEWEB-0034             
1 45454U 20020AG  26153.10884724  .00000141  00000+0  36556-3 0  9990
2 45454  87.8905  24.0673 0001772  83.4169 276.7160 13.10932305300617
ONEWEB-0060             
1 45455U 20020AH  26153.14250498 -.00000183  00000+0 -55255-3 0  9995
2 45455  87.8901  24.0603 0001995  52.6152 307.5157 13.11418857300570
ONEWEB-0086             
1 45456U 20020AJ  26153.12130893 -.00000331  00000+0 -96998-3 0  9994
2 45456  87.8909  24.0594 0001332  64.2107 295.9158 13.11416050300633
ONEWEB-0088             
1 45457U 20020AK  26153.02299239  .00000396  00000+0  10802-2 0  9992
2 45457  87.8919  24.0497 0002196  83.7952 276.3426 13.11415099300554
ONEWEB-0102             
1 47258U 20100A   26152.58157989 -.00000383  00000+0 -10994-2 0  9997
2 47258  87.8942 353.7799 0001481  86.1134 274.0164 13.12443421262689
ONEWEB-0109             
1 47259U 20100B   26152.59004914 -.00000343  00000+0 -98832-3 0  9992
2 47259  87.8952 353.7604 0001711  94.0316 266.1008 13.12443748262515
ONEWEB-0110             
1 47260U 20100C   26153.07458699  .00000356  00000+0  95317-3 0  9998
2 47260  87.8951 353.6483 0001630  81.6891 278.4422 13.12444229262746
ONEWEB-0111             
1 47261U 20100D   26153.10506715 -.00000002  00000+0 -40920-4 0  9997
2 47261  87.8952 353.6608 0001799  85.0586 275.0748 13.12443128262585
ONEWEB-0114             
1 47262U 20100E   26152.60191011 -.00000046  00000+0 -16286-3 0  9996
2 47262  87.8954 353.7584 0001845  96.6058 263.5280 13.12444252262476
ONEWEB-0117             
1 47263U 20100F   26152.59343577 -.00000308  00000+0 -89070-3 0  9993
2 47263  87.8950 353.7513 0001769  87.9444 272.1887 13.12443159262487
ONEWEB-0118             
1 47264U 20100G   26153.08474604  .00000464  00000+0  12556-2 0  9990
2 47264  87.8952 353.6566 0002042  96.1609 263.9753 13.12442187262746
ONEWEB-0119             
1 47265U 20100H   26153.03392097 -.00000189  00000+0 -56064-3 0  9990
2 47265  87.8941 353.6846 0001803  90.0314 270.1021 13.12441539262711
ONEWEB-0120             
1 47266U 20100J   26152.60036045 -.00000119  00000+0 -36534-3 0  9994
2 47266  87.8941 353.7719 0001700  93.3791 266.7533 13.12444027262683
