[{"OBJECT_NAME":"ONEWEB-0087","OBJECT_ID":"2020-020AD","EPOCH":"2026-06-02T03:40:53.432544","MEAN_MOTION":13.1141774,"ECCENTRICITY":0.0001909,"INCLINATION":87.8916,"RA_OF_ASC_NODE":24.0329,"ARG_OF_PERICENTER":73.523,"MEAN_ANOMALY":286.6107,"EPHEMERIS_TYPE":0,"CLASSIFICATION_TYPE":"U","NORAD_CAT_ID":45451,"ELEMENT_SET_NO":999,"REV_AT_EPOCH":30061,"BSTAR":0.00068594,"MEAN_MOTION_DOT":2.56e-06,"MEAN_MOTION_DDOT":0.0},{"OBJECT_NAME":"ONEWEB-0082","OBJECT_ID":"2020-020AE","EPOCH":"2026-06-02T03:36:01.454976","MEAN_MOTION":13.11374156,"ECCENTRICITY":0.0002823,"INCLINATION":87.8906,"RA_OF_ASC_NODE":24.053,"ARG_OF_PERICENTER":75.8869,"MEAN_ANOMALY":284.2572,"EPHEMERIS_TYPE":0,"CLASSIFICATION_TYPE":"U","NORAD_CAT_ID":45452,"ELEMENT_SET_NO":999,"REV_AT_EPOCH":30070,"BSTAR":0.020389,"MEAN_MOTION_DOT":7.24e-05,"MEAN_MOTION_DDOT":0.0},{"OBJECT_NAME":"ONEWEB-0050","OBJECT_ID":"2020-020AF","EPOCH":"2026-06-02T04:03:57.059424","MEAN_MOTION":14.90310989,"ECCENTRICITY":0.000524,"INCLINATION":88.9304,"RA_OF_ASC_NODE":235.2486,"ARG_OF_PERICENTER":58.7586,"MEAN_ANOMALY":301.4156,"EPHEMERIS_TYPE":0,"CLASSIFICATION_TYPE":"U","NORAD_CAT_ID":45453,"ELEMENT_SET_NO":999,"REV_AT_EPOCH":33814,"BSTAR":0.00031080999999999996,"MEAN_MOTION_DOT":3.04e-05,"MEAN_MOTION_DDOT":0.0},{"OBJECT_NAME":"ONEWEB-0034","OBJECT_ID":"2020-020AG","EPOCH":"2026-06-02T02:36:44.401536","MEAN_MOTION":13.10932305,"ECCENTRICITY":0.0001772,"INCLINATION":87.8905,"RA_OF_ASC_NODE":24.0673,"ARG_OF_PERICENTER":83.4169,"MEAN_ANOMALY":276.716,"EPHEMERIS_TYPE":0,"CLASSIFICATION_TYPE":"U","NORAD_CAT_ID":45454,"ELEMENT_SET_NO":999,"REV_AT_EPOCH":30061,"BSTAR":0.00036556,"MEAN_MOTION_DOT":1.41e-06,"MEAN_MOTION_DDOT":0.0},{"OBJECT_NAME":"ONEWEB-0060","OBJECT_ID":"2020-020AH","EPOCH":"2026-06-02T03:25:12.430272","MEAN_MOTION":13.11418857,"ECCENTRICITY":0.0001995,"INCLINATION":87.8901,"RA_OF_ASC_NODE":24.0603,"ARG_OF_PERICENTER":52.6152,"MEAN_ANOMALY":307.5157,"EPHEMERIS_TYPE":0,"CLASSIFICATION_TYPE":"U","NORAD_CAT_ID":45455,"ELEMENT_SET_NO":999,"REV_AT_EPOCH":30057,"BSTAR":-0.00055255,"MEAN_MOTION_DOT":-1.83e-06,"MEAN_MOTION_DDOT":0.0},{"OBJECT_NAME":"ONEWEB-0086","OBJECT_ID":"2020-020AJ","EPOCH":"2026-06-02T02:54:41.091552","MEAN_MOTION":13.1141605,"ECCENTRICITY":0.0001332,"INCLINATION":87.8909,"RA_OF_ASC_NODE":24.0594,"ARG_OF_PERICENTER":64.2107,"MEAN_ANOMALY":295.9158,"EPHEMERIS_TYPE":0,"CLASSIFICATION_TYPE":"U","NORAD_CAT_ID":45456,"ELEMENT_SET_NO":999,"REV_AT_EPOCH":30063,"BSTAR":-0.00096998,"MEAN_MOTION_DOT":-3.31e-06,"MEAN_MOTION_DDOT":0.0},{"OBJECT_NAME":"ONEWEB-0088","OBJECT_ID":"2020-020AK","EPOCH":"2026-06-02T00:33:06.542496","MEAN_MOTION":13.11415099,"ECCENTRICITY":0.0002196,"INCLINATION":87.8919,"RA_OF_ASC_NODE":24.0497,"ARG_OF_PERICENTER":83.7952,"MEAN_ANOMALY":276.3426,"EPHEMERIS_TYPE":0,"CLASSIFICATION_TYPE":"U","NORAD_CAT_ID":45457,"ELEMENT_SET_NO":999,"REV_AT_EPOCH":30055,"BSTAR":0.0010802000000000001,"MEAN_MOTION_DOT":3.96e-06,"MEAN_MOTION_DDOT":0.0},{"OBJECT_NAME":"ONEWEB-0102","OBJECT_ID":"2020-100A","EPOCH":"2026-06-01T13:57:28.502496","MEAN_MOTION":13.12443421,"ECCENTRICITY":0.0001481,"INCLINATION":87.8942,"RA_OF_ASC_NODE":353.7799,"ARG_OF_PERICENTER":86.1134,"MEAN_ANOMALY":274.0164,"EPHEMERIS_TYPE":0,"CLASSIFICATION_TYPE":"U","NORAD_CAT_ID":47258,"ELEMENT_SET_NO":999,"REV_AT_EPOCH":26268,"BSTAR":-0.0010994,"MEAN_MOTION_DOT":-3.83e-06,"MEAN_MOTION_DDOT":0.0},{"OBJECT_NAME":"ONEWEB-0109","OBJECT_ID":"2020-100B","EPOCH":"2026-06-01T14:09:40.245696","MEAN_MOTION":13.12443748,"ECCENTRICITY":0.0001711,"INCLINATION":87.8952,"RA_OF_ASC_NODE":353.7604,"ARG_OF_PERICENTER":94.0316,"MEAN_ANOMALY":266.1008,"EPHEMERIS_TYPE":0,"CLASSIFICATION_TYPE":"U","NORAD_CAT_ID":47259,"ELEMENT_SET_NO":999,"REV_AT_EPOCH":26251,"BSTAR":-0.00098832,"MEAN_MOTION_DOT":-3.43e-06,"MEAN_MOTION_DDOT":0.0},{"OBJECT_NAME":"ONEWEB-0110","OBJECT_ID":"2020-100C","EPOCH":"2026-06-02T01:47:24.315936","MEAN_MOTION":13.12444229,"ECCENTRICITY":0.000163,"INCLINATION":87.8951,"RA_OF_ASC_NODE":353.6483,"ARG_OF_PERICENTER":81.6891,"MEAN_ANOMALY":278.4422,"EPHEMERIS_TYPE":0,"CLASSIFICATION_TYPE":"U","NORAD_CAT_ID":47260,"ELEMENT_SET_NO":999,"REV_AT_EPOCH":26274,"BSTAR":0.0009531699999999999,"MEAN_MOTION_DOT":3.56e-06,"MEAN_MOTION_DDOT":0.0},{"OBJECT_NAME":"ONEWEB-0111","OBJECT_ID":"2020-100D","EPOCH":"2026-06-02T02:31:17.801760","MEAN_MOTION":13.12443128,"ECCENTRICITY":0.0001799,"INCLINATION":87.8952,"RA_OF_ASC_NODE":353.6608,"ARG_OF_PERICENTER":85.0586,"MEAN_ANOMALY":275.0748,"EPHEMERIS_TYPE":0,"CLASSIFICATION_TYPE":"U","NORAD_CAT_ID":47261,"ELEMENT_SET_NO":999,"REV_AT_EPOCH":26258,"BSTAR":-4.092e-05,"MEAN_MOTION_DOT":-2e-08,"MEAN_MOTION_DDOT":0.0},{"OBJECT_NAME":"ONEWEB-0114","OBJECT_ID":"2020-100E","EPOCH":"2026-06-01T14:26:45.033504","MEAN_MOTION":13.12444252,"ECCENTRICITY":0.0001845,"INCLINATION":87.8954,"RA_OF_ASC_NODE":353.7584,"ARG_OF_PERICENTER":96.6058,"MEAN_ANOMALY":263.528,"EPHEMERIS_TYPE":0,"CLASSIFICATION_TYPE":"U","NORAD_CAT_ID":47262,"ELEMENT_SET_NO":999,"REV_AT_EPOCH":26247,"BSTAR":-0.00016286,"MEAN_MOTION_DOT":-4.6e-07,"MEAN_MOTION_DDOT":0.0},{"OBJECT_NAME":"ONEWEB-0117","OBJECT_ID":"2020-100F","EPOCH":"2026-06-01T14:14:32.850528","MEAN_MOTION":13.12443159,"ECCENTRICITY":0.0001769,"INCLINATION":87.895,"RA_OF_ASC_NODE":353.7513,"ARG_OF_PERICENTER":87.9444,"MEAN_ANOMALY":272.1887,"EPHEMERIS_TYPE":0,"CLASSIFICATION_TYPE":"U","NORAD_CAT_ID":47263,"ELEMENT_SET_NO":999,"REV_AT_EPOCH":26248,"BSTAR":-0.0008907,"MEAN_MOTION_DOT":-3.08e-06,"MEAN_MOTION_DDOT":0.0},{"OBJECT_NAME":"ONEWEB-0118","OBJECT_ID":"2020-100G","EPOCH":"2026-06-02T02:02:02.057856","MEAN_MOTION":13.12442187,"ECCENTRICITY":0.0002042,"INCLINATION":87.8952,"RA_OF_ASC_NODE":353.6566,"ARG_OF_PERICENTER":96.1609,"MEAN_ANOMALY":263.9753,"EPHEMERIS_TYPE":0,"CLASSIFICATION_TYPE":"U","NORAD_CAT_ID":47264,"ELEMENT_SET_NO":999,"REV_AT_EPOCH":26274,"BSTAR":0.0012556000000000002,"MEAN_MOTION_DOT":4.64e-06,"MEAN_MOTION_DDOT":0.0},{"OBJECT_NAME":"ONEWEB-0119","OBJECT_ID":"2020-100H","EPOCH":"2026-06-02T00:48:50.771808","MEAN_MOTION":13.12441539,"ECCENTRICITY":0.0001803,"INCLINATION":87.8941,"RA_OF_ASC_NODE":353.6846,"ARG_OF_PERICENTER":90.0314,"MEAN_ANOMALY":270.1021,"EPHEMERIS_TYPE":0,"CLASSIFICATION_TYPE":"U","NORAD_CAT_ID":47265,"ELEMENT_SET_NO":999,"REV_AT_EPOCH":26271,"BSTAR":-0.00056064,"MEAN_MOTION_DOT":-1.89e-06,"MEAN_MOTION_DDOT":0.0},{"OBJECT_NAME":"ONEWEB-0120","OBJECT_ID":"2020-100J","EPOCH":"2026-06-01T14:24:31.142880","MEAN_MOTION":13.12444027,"ECCENTRICITY":0.00017,"INCLINATION":87.8941,"RA_OF_ASC_NODE":353.7719,"ARG_OF_PERICENTER":93.3791,"MEAN_ANOMALY":266.7533,"EPHEMERIS_TYPE":0,"CLASSIFICATION_TYPE":"U","NORAD_CAT_ID":47266,"ELEMENT_SET_NO":999,"REV_AT_EPOCH":26268,"BSTAR":-0.00036534,"MEAN_MOTION_DOT":-1.19e-06,"MEAN_MOTION_DDOT":0.0}]